GLOBALSTAR M023         
1 25621U 99004A   25072.96208413  .00000079  00000+0  10185-2 0  9999
2 25621  52.0134 343.4062 0009350 279.0094 162.2854 12.62500788203702
GLOBALSTAR M040         
1 25622U 99004B   25072.97920230 -.00000008  00000+0  53627-3 0  9991
2 25622  51.9947 347.3659 0000789 138.6450 302.1503 12.62004655203237
GLOBALSTAR M036         
1 25623U 99004C   25073.18497095 -.00000054  00000+0  41619-3 0  9993
2 25623  51.9950 130.7264 0011161 229.2032 165.3226 11.86590620167683
GLOBALSTAR M038         
1 25624U 99004D   25072.97477186 -.00000054  00000+0  33652-3 0  9997
2 25624  52.0004 345.7733 0001339 199.4259 242.1547 12.32522080190638
GLOBALSTAR M022         
1 25649U 99012A   25072.83655624 -.00000071  00000+0  18472-3 0  9995
2 25649  52.0030 190.1078 0001995 359.4885 150.4670 12.02497200164900
GLOBALSTAR M041         
1 25650U 99012B   25072.66318999 -.00000102  00000+0 -21662-3 0  9990
2 25650  52.0021  69.1181 0001774 124.5296 235.5708 11.96668727166842
GLOBALSTAR M046         
1 25651U 99012C   25072.48794832 -.00000188  00000+0 -10916-2 0  9998
2 25651  52.0041 144.6830 0002403  74.4574  48.7061 12.09406450172084
GLOBALSTAR M037         
1 25652U 99012D   25073.16480442 -.00000032  00000+0  39802-3 0  9997
2 25652  51.9988 113.4409 0001636 344.0031  56.2491 12.62438929199322
